UNKNOWN                 
1 84932U          26092.82653396  .00000865  00000+0  71602-2 0  9993
2 84932   2.0581 177.8298 6574455 181.8083  85.3879  3.00175457135114
UNKNOWN                 
1 85004U          26092.66443670  .00001119  00000+0  35407-3 0  9995
2 85004  98.4381  67.1809 0046458 187.4721 350.6666 14.41408583646871
UNKNOWN                 
1 85010U          26076.42716587  .00000982  00000+0  10655-2 0  9992
2 85010  99.2461 300.4448 0026889   5.2422 118.1978 13.75282620616934
UNKNOWN                 
1 85015U          26090.54480842  .00000688  00000+0  14160-3 0  9997
2 85015  74.0503 189.9652 0013913  66.1380 294.1243 14.62444688658518
UNKNOWN                 
1 85023U          26092.08457380  .00030967  00000+0  39336-2 0  9992
2 85023  99.8354 136.8805 0000963 160.1103 228.9922 14.81582865645130
UNKNOWN                 
1 85027U          26091.68678789  .00000154  00000+0  22273-3 0  9997
2 85027  66.0416 192.2672 0168559 131.2781 230.2941 13.74296495619729
UNKNOWN                 
1 85047U          26092.92255610  .00018006  00000+0  28158-1 0  9992
2 85047 102.1676  86.7472 0126810 123.7581 237.5699 13.47273534591610
UNKNOWN                 
1 85061U          26092.22944041  .00004555  00000+0  18012-1 0  9996
2 85061 102.4022  91.2127 0264641 335.7805  39.6675 12.77870981569892
UNKNOWN                 
1 85100U          26091.07487483  .00000438  00000+0  14496-3 0  9994
2 85100  74.0480  20.6343 0013440 225.0229 152.2993 14.40814286649098
UNKNOWN                 
1 85106U          26090.27469641  .00000744  00000+0  85802-3 0  9996
2 85106 100.0541 201.4742 0010879  99.2410 289.7872 13.73062445617960
UNKNOWN                 
1 85151U          26090.45015921  .00026046  00000+0  31124-2 0  9994
2 85151  98.3980 324.7241 0007770 140.8440 219.3337 14.84145521495623
UNKNOWN                 
1 85210U          26090.68657712  .00000412  00000+0  43080-3 0  9999
2 85210  99.8645 239.6912 0215263  35.7962 340.9039 13.71687155617097
